OBJECT_NAME,OBJECT_ID,EPOCH,MEAN_MOTION,ECCENTRICITY,INCLINATION,RA_OF_ASC_NODE,ARG_OF_PERICENTER,MEAN_ANOMALY,EPHEMERIS_TYPE,CLASSIFICATION_TYPE,NORAD_CAT_ID,ELEMENT_SET_NO,REV_AT_EPOCH,BSTAR,MEAN_MOTION_DOT,MEAN_MOTION_DDOT
HAWK-6B,2023-011A,2026-07-13T09:52:42.695328,15.23143561,.00039431,40.4967,199.0865,231.0284,129.0174,0,U,55324,999,19184,.11056983E-3,.2471E-4,0
HAWK-6C,2023-011C,2026-07-13T09:51:48.372192,15.23146024,.00044448,40.4959,195.9257,223.1928,136.8534,0,U,55326,999,19185,.11621496E-3,.2607E-4,0
HAWK-6A,2023-011D,2026-07-13T09:51:51.524928,15.23145096,.00039669,40.4967,197.5527,220.6915,139.3598,0,U,55327,999,19185,.1163441E-3,.261E-4,0
HAWK-7A,2023-054P,2026-07-14T03:58:19.920576,15.27626189,.0001509,97.2666,81.8169,339.6555,20.4624,0,U,56191,999,18114,.12263E-3,.324E-4,0
HAWK-7B,2023-054R,2026-07-14T03:58:13.859616,15.27624450,.0001442,97.2694,80.0906,18.5615,341.5677,0,U,56193,999,18114,.12141E-3,.3206E-4,0
HAWK-7C,2023-054Y,2026-07-14T03:58:03.370656,15.27627386,.0000983,97.2673,80.8513,1.3784,358.7458,0,U,56200,999,18114,.1219E-3,.322E-4,0
